GLOBALSTAR M035         
1 25851U 99037A   24343.91529191 -.00000087  00000+0 -89176-3 0  9992
2 25851  51.9928 119.2870 0014031  39.0211 108.6744 11.04534982 75234
GLOBALSTAR M032         
1 25852U 99037B   24344.16179802 -.00000068  00000+0 -35046-4 0  9998
2 25852  51.9972 317.0452 0010454 209.1292 150.8926 11.19054779113569
GLOBALSTAR M051         
1 25853U 99037C   24343.88943200 -.00000053  00000+0  46251-3 0  9990
2 25853  51.9761 139.9601 0000981 164.7318 195.3522 11.42199672110642
GLOBALSTAR M030         
1 25854U 99037D   24343.88044561 -.00000037  00000+0  79726-3 0  9998
2 25854  51.9895 318.1890 0004060  64.5800 295.5436 11.55101317128051
GLOBALSTAR M048         
1 25872U 99041A   24343.72305998 -.00000060  00000+0  27619-3 0  9990
2 25872  51.9385  68.0309 0013445 211.5907 318.9709 11.33852277103375
GLOBALSTAR M026         
1 25873U 99041B   24343.95987128 -.00000122  00000+0 -21229-2 0  9997
2 25873  51.9998 239.1493 0001192 342.0371 102.4007 11.06824765127422
GLOBALSTAR M043         
1 25874U 99041C   24343.90752627 -.00000057  00000+0  33448-3 0  9990
2 25874  51.9361 167.6564 0012881 352.5213 155.4386 11.25688485101449
GLOBALSTAR M028         
1 25875U 99041D   24343.85292696 -.00000077  00000+0  15418-3 0  9999
2 25875  51.9644  40.6047 0063192  18.4779 341.8358 12.50571407166362
